{"fetched_at":"2026-07-12T05:52:33.815Z","source":"https://celestrak.org/NORAD/elements/gp.php?GROUP=oneweb&FORMAT=JSON","constellation":"oneweb","records":[{"OBJECT_NAME":"ONEWEB-0205","OBJECT_ID":"2021-031S","EPOCH":"2026-07-11T19:11:53.293632","CLASSIFICATION_TYPE":"U","MEAN_MOTION":13.14502414,"ECCENTRICITY":0.0002265,"INCLINATION":87.8974,"RA_OF_ASC_NODE":284.7955,"ARG_OF_PERICENTER":99.4917,"MEAN_ANOMALY":260.6469,"EPHEMERIS_TYPE":0,"NORAD_CAT_ID":48226,"ELEMENT_SET_NO":999,"REV_AT_EPOCH":25150,"BSTAR":0.000082797,"MEAN_MOTION_DOT":4.3e-7,"MEAN_MOTION_DDOT":0},{"OBJECT_NAME":"ONEWEB-0206","OBJECT_ID":"2021-031T","EPOCH":"2026-07-11T18:33:03.757824","CLASSIFICATION_TYPE":"U","MEAN_MOTION":13.14501519,"ECCENTRICITY":0.0001918,"INCLINATION":87.8971,"RA_OF_ASC_NODE":284.8006,"ARG_OF_PERICENTER":101.0827,"MEAN_ANOMALY":259.0519,"EPHEMERIS_TYPE":0,"NORAD_CAT_ID":48227,"ELEMENT_SET_NO":999,"REV_AT_EPOCH":25145,"BSTAR":0.0001996,"MEAN_MOTION_DOT":8.7e-7,"MEAN_MOTION_DDOT":0},{"OBJECT_NAME":"ONEWEB-0182","OBJECT_ID":"2021-031U","EPOCH":"2026-07-11T18:26:12.435936","CLASSIFICATION_TYPE":"U","MEAN_MOTION":13.14503748,"ECCENTRICITY":0.0001961,"INCLINATION":87.8968,"RA_OF_ASC_NODE":284.8084,"ARG_OF_PERICENTER":93.3337,"MEAN_ANOMALY":266.8017,"EPHEMERIS_TYPE":0,"NORAD_CAT_ID":48228,"ELEMENT_SET_NO":999,"REV_AT_EPOCH":25166,"BSTAR":0.000028282,"MEAN_MOTION_DOT":2.3e-7,"MEAN_MOTION_DDOT":0},{"OBJECT_NAME":"ONEWEB-0186","OBJECT_ID":"2021-031V","EPOCH":"2026-07-11T18:42:12.224160","CLASSIFICATION_TYPE":"U","MEAN_MOTION":13.14502661,"ECCENTRICITY":0.0002161,"INCLINATION":87.8979,"RA_OF_ASC_NODE":284.799,"ARG_OF_PERICENTER":97.9339,"MEAN_ANOMALY":262.2036,"EPHEMERIS_TYPE":0,"NORAD_CAT_ID":48229,"ELEMENT_SET_NO":999,"REV_AT_EPOCH":25161,"BSTAR":0.00045202,"MEAN_MOTION_DOT":0.0000018,"MEAN_MOTION_DDOT":0},{"OBJECT_NAME":"ONEWEB-0181","OBJECT_ID":"2021-031W","EPOCH":"2026-07-11T18:10:12.429984","CLASSIFICATION_TYPE":"U","MEAN_MOTION":13.14502546,"ECCENTRICITY":0.0002273,"INCLINATION":87.8959,"RA_OF_ASC_NODE":284.8281,"ARG_OF_PERICENTER":99.2598,"MEAN_ANOMALY":260.8789,"EPHEMERIS_TYPE":0,"NORAD_CAT_ID":48230,"ELEMENT_SET_NO":999,"REV_AT_EPOCH":25146,"BSTAR":-0.00085354,"MEAN_MOTION_DOT":-0.00000304,"MEAN_MOTION_DDOT":0},{"OBJECT_NAME":"ONEWEB-0188","OBJECT_ID":"2021-031X","EPOCH":"2026-07-11T19:05:01.976928","CLASSIFICATION_TYPE":"U","MEAN_MOTION":13.14502215,"ECCENTRICITY":0.0002044,"INCLINATION":87.8966,"RA_OF_ASC_NODE":284.8197,"ARG_OF_PERICENTER":100.3508,"MEAN_ANOMALY":259.7852,"EPHEMERIS_TYPE":0,"NORAD_CAT_ID":48231,"ELEMENT_SET_NO":999,"REV_AT_EPOCH":25137,"BSTAR":0.00024703,"MEAN_MOTION_DOT":0.00000104,"MEAN_MOTION_DDOT":0},{"OBJECT_NAME":"ONEWEB-0220","OBJECT_ID":"2021-031Y","EPOCH":"2026-07-11T18:12:29.683296","CLASSIFICATION_TYPE":"U","MEAN_MOTION":13.14503707,"ECCENTRICITY":0.0002308,"INCLINATION":87.8976,"RA_OF_ASC_NODE":284.8042,"ARG_OF_PERICENTER":93.6779,"MEAN_ANOMALY":266.4614,"EPHEMERIS_TYPE":0,"NORAD_CAT_ID":48232,"ELEMENT_SET_NO":999,"REV_AT_EPOCH":25163,"BSTAR":-0.00034386,"MEAN_MOTION_DOT":-0.00000115,"MEAN_MOTION_DDOT":0},{"OBJECT_NAME":"ONEWEB-0165","OBJECT_ID":"2021-031Z","EPOCH":"2026-07-11T18:53:37.771008","CLASSIFICATION_TYPE":"U","MEAN_MOTION":13.14502546,"ECCENTRICITY":0.0002455,"INCLINATION":87.8971,"RA_OF_ASC_NODE":284.8099,"ARG_OF_PERICENTER":102.6803,"MEAN_ANOMALY":257.4602,"EPHEMERIS_TYPE":0,"NORAD_CAT_ID":48233,"ELEMENT_SET_NO":999,"REV_AT_EPOCH":25159,"BSTAR":0.00024339,"MEAN_MOTION_DOT":0.00000103,"MEAN_MOTION_DDOT":0},{"OBJECT_NAME":"ONEWEB-0199","OBJECT_ID":"2021-031AA","EPOCH":"2026-07-11T18:30:47.288160","CLASSIFICATION_TYPE":"U","MEAN_MOTION":13.14501396,"ECCENTRICITY":0.0001914,"INCLINATION":87.8975,"RA_OF_ASC_NODE":284.8003,"ARG_OF_PERICENTER":99.9221,"MEAN_ANOMALY":260.2125,"EPHEMERIS_TYPE":0,"NORAD_CAT_ID":48234,"ELEMENT_SET_NO":999,"REV_AT_EPOCH":25149,"BSTAR":0.00003202,"MEAN_MOTION_DOT":2.5e-7,"MEAN_MOTION_DDOT":0},{"OBJECT_NAME":"ONEWEB-0203","OBJECT_ID":"2021-031AB","EPOCH":"2026-07-11T18:17:04.591680","CLASSIFICATION_TYPE":"U","MEAN_MOTION":13.14501276,"ECCENTRICITY":0.0002052,"INCLINATION":87.8974,"RA_OF_ASC_NODE":284.8051,"ARG_OF_PERICENTER":103.7894,"MEAN_ANOMALY":256.3464,"EPHEMERIS_TYPE":0,"NORAD_CAT_ID":48235,"ELEMENT_SET_NO":999,"REV_AT_EPOCH":25150,"BSTAR":-0.00022244,"MEAN_MOTION_DOT":-7e-7,"MEAN_MOTION_DDOT":0},{"OBJECT_NAME":"ONEWEB-0197","OBJECT_ID":"2021-031AC","EPOCH":"2026-07-11T19:29:56.812704","CLASSIFICATION_TYPE":"U","MEAN_MOTION":13.14501622,"ECCENTRICITY":0.000203,"INCLINATION":87.8966,"RA_OF_ASC_NODE":284.7793,"ARG_OF_PERICENTER":91.4968,"MEAN_ANOMALY":268.6395,"EPHEMERIS_TYPE":0,"NORAD_CAT_ID":48236,"ELEMENT_SET_NO":999,"REV_AT_EPOCH":25142,"BSTAR":-0.00059531,"MEAN_MOTION_DOT":-0.00000208,"MEAN_MOTION_DDOT":0},{"OBJECT_NAME":"ONEWEB-0194","OBJECT_ID":"2021-031AD","EPOCH":"2026-07-11T19:00:27.943776","CLASSIFICATION_TYPE":"U","MEAN_MOTION":13.14503902,"ECCENTRICITY":0.0001841,"INCLINATION":87.8968,"RA_OF_ASC_NODE":284.8068,"ARG_OF_PERICENTER":105.9202,"MEAN_ANOMALY":254.213,"EPHEMERIS_TYPE":0,"NORAD_CAT_ID":48237,"ELEMENT_SET_NO":999,"REV_AT_EPOCH":25159,"BSTAR":0.00059302,"MEAN_MOTION_DOT":0.00000233,"MEAN_MOTION_DDOT":0},{"OBJECT_NAME":"ONEWEB-0193","OBJECT_ID":"2021-031AE","EPOCH":"2026-07-11T19:23:18.396384","CLASSIFICATION_TYPE":"U","MEAN_MOTION":13.1450182,"ECCENTRICITY":0.0001781,"INCLINATION":87.8972,"RA_OF_ASC_NODE":284.7934,"ARG_OF_PERICENTER":110.6357,"MEAN_ANOMALY":249.4964,"EPHEMERIS_TYPE":0,"NORAD_CAT_ID":48238,"ELEMENT_SET_NO":999,"REV_AT_EPOCH":25154,"BSTAR":-0.00041492,"MEAN_MOTION_DOT":-0.00000141,"MEAN_MOTION_DDOT":0},{"OBJECT_NAME":"ONEWEB-0191","OBJECT_ID":"2021-031AF","EPOCH":"2026-07-11T17:49:40.488672","CLASSIFICATION_TYPE":"U","MEAN_MOTION":13.1450606,"ECCENTRICITY":0.0002001,"INCLINATION":87.8979,"RA_OF_ASC_NODE":284.807,"ARG_OF_PERICENTER":94.7086,"MEAN_ANOMALY":265.4272,"EPHEMERIS_TYPE":0,"NORAD_CAT_ID":48239,"ELEMENT_SET_NO":999,"REV_AT_EPOCH":25139,"BSTAR":-0.00068906,"MEAN_MOTION_DOT":-0.00000243,"MEAN_MOTION_DDOT":0},{"OBJECT_NAME":"ONEWEB-0195","OBJECT_ID":"2021-031AG","EPOCH":"2026-07-11T19:06:10.792800","CLASSIFICATION_TYPE":"U","MEAN_MOTION":13.14502878,"ECCENTRICITY":0.0002456,"INCLINATION":87.8976,"RA_OF_ASC_NODE":284.7968,"ARG_OF_PERICENTER":100.403,"MEAN_ANOMALY":259.7376,"EPHEMERIS_TYPE":0,"NORAD_CAT_ID":48240,"ELEMENT_SET_NO":999,"REV_AT_EPOCH":25138,"BSTAR":0.00017648,"MEAN_MOTION_DOT":7.8e-7,"MEAN_MOTION_DDOT":0},{"OBJECT_NAME":"ONEWEB-0201","OBJECT_ID":"2021-031AH","EPOCH":"2026-07-11T16:59:38.143104","CLASSIFICATION_TYPE":"U","MEAN_MOTION":13.1450208,"ECCENTRICITY":0.0002113,"INCLINATION":87.8971,"RA_OF_ASC_NODE":284.8284,"ARG_OF_PERICENTER":91.0441,"MEAN_ANOMALY":269.093,"EPHEMERIS_TYPE":0,"NORAD_CAT_ID":48241,"ELEMENT_SET_NO":999,"REV_AT_EPOCH":25160,"BSTAR":0.00047216,"MEAN_MOTION_DOT":0.00000188,"MEAN_MOTION_DDOT":0}]}
