ONEWEB-0205             
1 48226U 21031S   26192.79992239  .00000043  00000+0  82797-4 0  9992
2 48226  87.8974 284.7955 0002265  99.4917 260.6469 13.14502414251502
ONEWEB-0206             
1 48227U 21031T   26192.77296017  .00000087  00000+0  19960-3 0  9991
2 48227  87.8971 284.8006 0001917 101.0827 259.0519 13.14501519251458
ONEWEB-0182             
1 48228U 21031U   26192.76819950  .00000023  00000+0  28282-4 0  9996
2 48228  87.8968 284.8084 0001961  93.3337 266.8017 13.14503748251667
ONEWEB-0186             
1 48229U 21031V   26192.77930815  .00000180  00000+0  45202-3 0  9996
2 48229  87.8979 284.7990 0002160  97.9339 262.2036 13.14502661251618
ONEWEB-0181             
1 48230U 21031W   26192.75708832 -.00000304  00000+0 -85354-3 0  9990
2 48230  87.8959 284.8281 0002273  99.2598 260.8789 13.14502546251463
ONEWEB-0188             
1 48231U 21031X   26192.79516178  .00000104  00000+0  24703-3 0  9992
2 48231  87.8966 284.8197 0002043 100.3508 259.7852 13.14502215251379
ONEWEB-0220             
1 48232U 21031Y   26192.75867689 -.00000115  00000+0 -34386-3 0  9997
2 48232  87.8976 284.8042 0002308  93.6779 266.4614 13.14503707251635
ONEWEB-0165             
1 48233U 21031Z   26192.78724272  .00000103  00000+0  24338-3 0  9992
2 48233  87.8971 284.8099 0002454 102.6803 257.4602 13.14502546251596
ONEWEB-0199             
1 48234U 21031AA  26192.77138065  .00000025  00000+0  32020-4 0  9992
2 48234  87.8975 284.8003 0001914  99.9221 260.2125 13.14501396251491
ONEWEB-0203             
1 48235U 21031AB  26192.76185871 -.00000070  00000+0 -22244-3 0  9997
2 48235  87.8974 284.8051 0002052 103.7894 256.3464 13.14501276251509
ONEWEB-0197             
1 48236U 21031AC  26192.81246312 -.00000208  00000+0 -59531-3 0  9994
2 48236  87.8966 284.7793 0002030  91.4968 268.6395 13.14501622251429
ONEWEB-0194             
1 48237U 21031AD  26192.79199010  .00000233  00000+0  59302-3 0  9996
2 48237  87.8968 284.8068 0001841 105.9202 254.2130 13.14503902251598
ONEWEB-0193             
1 48238U 21031AE  26192.80785181 -.00000141  00000+0 -41492-3 0  9990
2 48238  87.8972 284.7934 0001781 110.6357 249.4964 13.14501820251545
ONEWEB-0191             
1 48239U 21031AF  26192.74282974 -.00000243  00000+0 -68906-3 0  9998
2 48239  87.8979 284.8070 0002001  94.7086 265.4272 13.14506060251396
ONEWEB-0195             
1 48240U 21031AG  26192.79595826  .00000078  00000+0  17648-3 0  9999
2 48240  87.8976 284.7968 0002455 100.4030 259.7376 13.14502878251380
ONEWEB-0201             
1 48241U 21031AH  26192.70808037  .00000188  00000+0  47216-3 0  9998
2 48241  87.8971 284.8284 0002112  91.0441 269.0930 13.14502080251609
